STARLINK-37312          
1 68676U 26077Q   26112.53564513 -.00716079  00000+0 -50005-2 0  9992
2 68676  97.2833 343.6081 0002580  14.4970 345.6370 15.76140300  1817
